[
    {
        "id": 1,
        "placeName": "Paris",
        "placeImage": "https://images.pexels.com/photos/460740/pexels-photo-460740.jpeg?auto=compress&cs=tinysrgb&w=1260&h=750&dpr=1"
    },
    {
        "id": 2,
        "placeName": "Rome",
        "placeImage": "https://images.pexels.com/photos/2043438/pexels-photo-2043438.jpeg?auto=compress&cs=tinysrgb&w=1260&h=750&dpr=1"
    },
    {
        "id": 3,
        "placeName": "Tokyo",
        "placeImage": "https://images.pexels.com/photos/16226321/pexels-photo-16226321/free-photo-of-kiyomizudera-temple-in-kyoto.jpeg?auto=compress&cs=tinysrgb&w=1260&h=750&dpr=1"
    },
    {
        "id": 4,
        "placeName": "New York",
        "placeImage": "https://images.pexels.com/photos/460740/pexels-photo-460740.jpeg?auto=compress&cs=tinysrgb&w=1260&h=750&dpr=1"
    },
    {
        "id": 5,
        "placeName": "London",
        "placeImage": "https://images.pexels.com/photos/2043438/pexels-photo-2043438.jpeg?auto=compress&cs=tinysrgb&w=1260&h=750&dpr=1"
    },
    {
        "id": 6,
        "placeName": "Beijing",
        "placeImage": "https://images.pexels.com/photos/16226321/pexels-photo-16226321/free-photo-of-kiyomizudera-temple-in-kyoto.jpeg?auto=compress&cs=tinysrgb&w=1260&h=750&dpr=1"
    },
    {
        "id": 7,
        "placeName": "Sydney",
        "placeImage": "https://images.pexels.com/photos/460740/pexels-photo-460740.jpeg?auto=compress&cs=tinysrgb&w=1260&h=750&dpr=1"
    },
    {
        "id": 8,
        "placeName": "Bangkok",
        "placeImage": "https://images.pexels.com/photos/2043438/pexels-photo-2043438.jpeg?auto=compress&cs=tinysrgb&w=1260&h=750&dpr=1"
    },
    {
        "id": 9,
        "placeName": "Istanbul",
        "placeImage": "https://images.pexels.com/photos/16226321/pexels-photo-16226321/free-photo-of-kiyomizudera-temple-in-kyoto.jpeg?auto=compress&cs=tinysrgb&w=1260&h=750&dpr=1"
    },
    {
        "id": 10,
        "placeName": "Seoul",
        "placeImage": "https://images.pexels.com/photos/460740/pexels-photo-460740.jpeg?auto=compress&cs=tinysrgb&w=1260&h=750&dpr=1"
    },
    {
        "id": 11,
        "placeName": "Hong Kong",
        "placeImage": "https://images.pexels.com/photos/2043438/pexels-photo-2043438.jpeg?auto=compress&cs=tinysrgb&w=1260&h=750&dpr=1"
    },
    {
        "id": 12,
        "placeName": "Singapore",
        "placeImage": "https://images.pexels.com/photos/16226321/pexels-photo-16226321/free-photo-of-kiyomizudera-temple-in-kyoto.jpeg?auto=compress&cs=tinysrgb&w=1260&h=750&dpr=1"
    },
    {
        "id": 13,
        "placeName": "Kuala Lumpur",
        "placeImage": "https://images.pexels.com/photos/460740/pexels-photo-460740.jpeg?auto=compress&cs=tinysrgb&w=1260&h=750&dpr=1"
    },
    {
        "id": 14,
        "placeName": "Cairo",
        "placeImage": "https://images.pexels.com/photos/2043438/pexels-photo-2043438.jpeg?auto=compress&cs=tinysrgb&w=1260&h=750&dpr=1"
    },
    {
        "id": 15,
        "placeName": "Mumbai",
        "placeImage": "https://images.pexels.com/photos/16226321/pexels-photo-16226321/free-photo-of-kiyomizudera-temple-in-kyoto.jpeg?auto=compress&cs=tinysrgb&w=1260&h=750&dpr=1"
    },
    {
        "id": 16,
        "placeName": "Delhi",
        "placeImage": "https://images.pexels.com/photos/460740/pexels-photo-460740.jpeg?auto=compress&cs=tinysrgb&w=1260&h=750&dpr=1"
    },
    {
        "id": 17,
        "placeName": "Shanghai",
        "placeImage": "https://images.pexels.com/photos/2043438/pexels-photo-2043438.jpeg?auto=compress&cs=tinysrgb&w=1260&h=750&dpr=1"
    },
    {
        "id": 18,
        "placeName": "Guangzhou",
        "placeImage": "https://images.pexels.com/photos/16226321/pexels-photo-16226321/free-photo-of-kiyomizudera-temple-in-kyoto.jpeg?auto=compress&cs=tinysrgb&w=1260&h=750&dpr=1"
    },
    {
        "id": 19,
        "placeName": "Chennai",
        "placeImage": "https://images.pexels.com/photos/460740/pexels-photo-460740.jpeg?auto=compress&cs=tinysrgb&w=1260&h=750&dpr=1"
    },
    {
        "id": 20,
        "placeName": "Hyderabad",
        "placeImage": "https://images.pexels.com/photos/2043438/pexels-photo-2043438.jpeg?auto=compress&cs=tinysrgb&w=1260&h=750&dpr=1"
    }
]